NORAD_CAT_ID,OBJECT_NAME,OBJECT_TYPE,EPOCH,MEAN_MOTION,ECCENTRICITY,INCLINATION,RA_OF_ASC_NODE,ARG_OF_PERICENTER,MEAN_ANOMALY,BSTAR,MEAN_MOTION_DOT,MEAN_MOTION_DDOT,TLE_LINE0,TLE_LINE1,TLE_LINE2,SEMIMAJOR_AXIS,PERIOD,APOGEE,PERIGEE,DECAYED
55302.0,STARLINK-5321,PAYLOAD,2024-04-25 22:48:30,14.98333524,0.0002798,69.9998,305.7909,265.9185,94.1654,6.3451e-05,6.64e-06,0.0,0 STARLINK-5321,1 55302U 23010AK  24116.95035152  .00000664  00000-0  63451-4 0  9994,2 55302  69.9998 305.7909 0002798 265.9185  94.1654 14.98333524 71001,6950.182,96.107,573.992,570.102,0.0
55302.0,STARLINK-5321,PAYLOAD,2024-04-26 14:49:51,14.98332553,0.0002593,70.0004,304.1081,263.9844,96.102,-3.8664e-05,-5.54e-06,0.0,0 STARLINK-5321,1 55302U 23010AK  24117.61795358 -.00000554  00000-0 -38664-4 0  9997,2 55302  70.0004 304.1081 0002593 263.9844  96.1020 14.98332553 71100,6950.185,96.107,573.852,570.248,0.0
55302.0,STARLINK-5321,PAYLOAD,2024-04-26 16:25:59,14.98332245,0.0002602,70.0003,303.94,263.5456,96.5407,-4.3399e-05,-6.11e-06,0.0,0 STARLINK-5321,1 55302U 23010AK  24117.68471374 -.00000611  00000-0 -43399-4 0  9998,2 55302  70.0003 303.9400 0002602 263.5456  96.5407 14.98332245 71119,6950.186,96.107,573.859,570.243,0.0
55302.0,STARLINK-5321,PAYLOAD,2024-04-27 13:15:43,14.98334255,0.0002658,70.0,301.7502,270.1986,89.8869,2.1602e-05,1.65e-06,0.0,0 STARLINK-5321,1 55302U 23010AK  24118.55258853  .00000165  00000-0  21602-4 0  9995,2 55302  70.0000 301.7502 0002658 270.1986  89.8869 14.98334255 70937,6950.18,96.107,573.892,570.197,0.0
55302.0,STARLINK-5321,PAYLOAD,2024-04-27 21:16:23,14.98333209,0.0002715,69.9997,300.909,267.1245,92.9604,1.5482e-06,-7.4e-07,0.0,0 STARLINK-5321,1 55302U 23010AK  24118.88638867 -.00000074  00000-0  15482-5 0  9998,2 55302  69.9997 300.9090 0002715 267.1245  92.9604 14.98333209 71290,6950.183,96.107,573.935,570.161,0.0
55302.0,STARLINK-5321,PAYLOAD,2024-04-28 13:17:45,14.98325292,0.0002734,69.9993,299.2257,268.4359,91.6487,-6.3108e-05,-8.46e-06,0.0,0 STARLINK-5321,1 55302U 23010AK  24119.55399526 -.00000846  00000-0 -63108-4 0  9994,2 55302  69.9993 299.2257 0002734 268.4359  91.6487 14.98325292 71087,6950.207,96.107,573.973,570.172,0.0
55302.0,STARLINK-5321,PAYLOAD,2024-04-28 14:53:53,14.98323939,0.000276,69.9992,299.0573,268.5223,91.562,-7.8916e-05,-1.034e-05,0.0,0 STARLINK-5321,1 55302U 23010AK  24119.62075669 -.00001034  00000-0 -78916-4 0  9994,2 55302  69.9992 299.0573 0002760 268.5223  91.5620 14.98323939 71405,6950.212,96.107,573.995,570.158,0.0
55302.0,STARLINK-5321,PAYLOAD,2024-04-28 21:18:25,14.98322718,0.0002774,69.9992,298.384,268.616,91.4682,-8.7325e-05,-1.135e-05,0.0,0 STARLINK-5321,1 55302U 23010AK  24119.88779863 -.00001135  00000-0 -87325-4 0  9995,2 55302  69.9992 298.3840 0002774 268.6160  91.4682 14.98322718 71445,6950.215,96.107,574.008,570.152,0.0
55302.0,STARLINK-5321,PAYLOAD,2024-04-29 13:19:45,14.98335303,0.0003473,69.9973,296.7015,268.2413,91.8348,5.8854e-05,6.09e-06,0.0,0 STARLINK-5321,1 55302U 23010AK  24120.55538438  .00000609  00000-0  58854-4 0  9990,2 55302  69.9973 296.7015 0003473 268.2413  91.8348 14.98335303 71238,6950.176,96.107,574.455,569.628,0.0
55302.0,STARLINK-5321,PAYLOAD,2024-04-29 14:55:53,14.98336193,0.0003413,69.999,296.5324,268.2504,91.8264,4.6077e-05,4.57e-06,0.0,0 STARLINK-5321,1 55302U 23010AK  24120.62214407  .00000457  00000-0  46077-4 0  9990,2 55302  69.9990 296.5324 0003413 268.2504  91.8264 14.98336193 71553,6950.174,96.107,574.411,569.667,0.0
55302.0,STARLINK-5321,PAYLOAD,2024-04-29 19:44:16,14.9834798,0.0002874,69.9991,296.0267,266.9123,93.1708,0.00017297,1.972e-05,0.0,0 STARLINK-5321,1 55302U 23010AK  24120.82241186  .00001972  00000-0  17297-3 0  9990,2 55302  69.9991 296.0267 0002874 266.9123  93.1708 14.98347980 71270,6950.137,96.106,574.0,570.005,0.0
55302.0,STARLINK-5321,PAYLOAD,2024-04-29 21:20:24,14.98348017,0.0002884,69.999,295.8585,269.5322,90.5507,0.00016166,1.837e-05,0.0,0 STARLINK-5321,1 55302U 23010AK  24120.88917177  .00001837  00000-0  16166-3 0  9990,2 55302  69.9990 295.8585 0002884 269.5322  90.5507 14.98348017 71595,6950.137,96.106,574.007,569.998,0.0
55302.0,STARLINK-5321,PAYLOAD,2024-04-30 13:21:46,14.98325747,0.0002663,69.9988,294.1748,272.8098,87.2756,5.4058e-05,5.52e-06,0.0,0 STARLINK-5321,1 55302U 23010AK  24121.55678687  .00000552  00000-0  54058-4 0  9991,2 55302  69.9988 294.1748 0002663 272.8098  87.2756 14.98325747 71388,6950.206,96.107,573.922,570.22,0.0
55302.0,STARLINK-5321,PAYLOAD,2024-04-30 14:57:54,14.98324801,0.0002735,69.9986,294.0059,270.699,89.3856,4.762e-05,4.75e-06,0.0,0 STARLINK-5321,1 55302U 23010AK  24121.62354742  .00000475  00000-0  47620-4 0  9993,2 55302  69.9986 294.0059 0002735 270.6990  89.3856 14.98324801 71707,6950.209,96.107,573.975,570.173,0.0
55302.0,STARLINK-5321,PAYLOAD,2024-04-30 19:46:19,14.98321473,0.0003263,69.9985,293.5028,270.5525,89.526,-4.7103e-05,-6.55e-06,0.0,0 STARLINK-5321,1 55302U 23010AK  24121.82383246 -.00000655  00000-0 -47103-4 0  9994,2 55302  69.9985 293.5028 0003263 270.5525  89.5260 14.98321473 71428,6950.219,96.108,574.352,569.816,0.0
55302.0,STARLINK-5321,PAYLOAD,2024-04-30 21:22:27,14.98321887,0.0003246,69.9986,293.3344,270.5547,89.524,-4.0144e-05,-5.72e-06,0.0,0 STARLINK-5321,1 55302U 23010AK  24121.89059226 -.00000572  00000-0 -40144-4 0  9995,2 55302  69.9986 293.3344 0003246 270.5547  89.5240 14.98321887 71745,6950.218,96.108,574.339,569.827,0.0
55302.0,STARLINK-5321,PAYLOAD,2024-05-01 10:11:31,14.98335254,0.0003134,69.9989,291.9877,269.7968,90.2832,-0.00018853,-2.342e-05,0.0,0 STARLINK-5321,1 55302U 23010AK  24122.42466951 -.00002342  00000-0 -18853-3 0  9990,2 55302  69.9989 291.9877 0003134 269.7968  90.2832 14.98335254 71510,6950.177,96.107,574.22,569.863,0.0
55302.0,STARLINK-5321,PAYLOAD,2024-05-01 18:12:11,14.9833643,0.0003274,69.9986,291.146,270.023,90.0553,-0.00018597,-2.312e-05,0.0,0 STARLINK-5321,1 55302U 23010AK  24122.75846736 -.00002312  00000-0 -18597-3 0  9991,2 55302  69.9986 291.1460 0003274 270.0230  90.0553 14.98336430 71873,6950.173,96.107,574.313,569.763,0.0
55302.0,STARLINK-5321,PAYLOAD,2024-05-02 13:25:48,14.98322801,0.000326,69.9989,289.1249,273.0261,87.0525,8.8556e-05,9.64e-06,0.0,0 STARLINK-5321,1 55302U 23010AK  24123.55958721  .00000964  00000-0  88556-4 0  9990,2 55302  69.9989 289.1249 0003260 273.0261  87.0525 14.98322801 71681,6950.215,96.107,574.346,569.814,0.0
55302.0,STARLINK-5321,PAYLOAD,2024-05-02 15:01:56,14.98322865,0.0003262,69.9989,288.9566,272.9927,87.0859,8.7435e-05,9.5e-06,0.0,0 STARLINK-5321,1 55302U 23010AK  24123.62634748  .00000950  00000-0  87435-4 0  9998,2 55302  69.9989 288.9566 0003262 272.9927  87.0859 14.98322865 72006,6950.215,96.107,574.347,569.813,0.0
55302.0,STARLINK-5321,PAYLOAD,2024-05-03 03:51:00,14.98329922,0.0003267,69.9987,287.6101,271.9695,88.1089,8.799e-05,9.57e-06,0.0,0 STARLINK-5321,1 55302U 23010AK  24124.16042344  .00000957  00000-0  87990-4 0  9996,2 55302  69.9987 287.6101 0003267 271.9695  88.1089 14.98329922 71772,6950.193,96.107,574.329,569.788,0.0
55302.0,STARLINK-5321,PAYLOAD,2024-05-03 15:03:56,14.98333648,0.0003185,69.9988,286.4315,271.79,88.2894,5.417e-05,5.53e-06,0.0,0 STARLINK-5321,1 55302U 23010AK  24124.62774155  .00000553  00000-0  54170-4 0  9995,2 55302  69.9988 286.4315 0003185 271.7900  88.2894 14.98333648 72151,6950.182,96.107,574.26,569.833,0.0
55302.0,STARLINK-5321,PAYLOAD,2024-05-03 19:52:20,14.9833539,0.0003147,69.9988,285.9268,270.3351,89.7447,7.257e-05,7.73e-06,0.0,0 STARLINK-5321,1 55302U 23010AK  24124.82801917  .00000773  00000-0  72570-4 0  9992,2 55302  69.9988 285.9268 0003147 270.3351  89.7447 14.98335390 72184,6950.176,96.107,574.228,569.854,0.0
55302.0,STARLINK-5321,PAYLOAD,2024-05-04 03:53:01,14.98329287,0.0003092,69.9988,285.085,270.1705,89.9099,2.5957e-06,-6.2e-07,0.0,0 STARLINK-5321,1 55302U 23010AK  24125.16182422 -.00000062  00000-0  25957-5 0  9993,2 55302  69.9988 285.0850 0003092 270.1705  89.9099 14.98329287 71926,6950.195,96.107,574.209,569.911,0.0
55302.0,STARLINK-5321,PAYLOAD,2024-05-04 13:29:50,14.98319509,0.0002959,69.9992,284.0754,269.3714,90.7106,-0.00012365,-1.568e-05,0.0,0 STARLINK-5321,1 55302U 23010AK  24125.56239522 -.00001568  00000-0 -12365-3 0  9991,2 55302  69.9992 284.0754 0002959 269.3714  90.7106 14.98319509 71985,6950.225,96.108,574.147,570.034,0.0
55302.0,STARLINK-5321,PAYLOAD,2024-05-05 03:55:03,14.98325202,0.0003012,69.9992,282.5604,270.0453,90.0361,-7.348e-05,-9.7e-06,0.0,0 STARLINK-5321,1 55302U 23010AK  24126.16323279 -.00000970  00000-0 -73480-4 0  9993,2 55302  69.9992 282.5604 0003012 270.0453  90.0361 14.98325202 72076,6950.208,96.107,574.166,569.979,0.0
55302.0,STARLINK-5321,PAYLOAD,2024-05-05 13:31:51,14.98331352,0.0003033,69.9992,281.5505,270.1755,89.9056,-4.7249e-05,-6.57e-06,0.0,0 STARLINK-5321,1 55302U 23010AK  24126.56378840 -.00000657  00000-0 -47249-4 0  9997,2 55302  69.9992 281.5505 0003033 270.1755  89.9056 14.98331352 72446,6950.189,96.107,574.162,569.946,0.0
55302.0,STARLINK-5321,PAYLOAD,2024-05-05 19:56:23,14.9833305,0.0003014,69.9992,280.8773,270.4047,89.6766,-1.3268e-05,-2.51e-06,0.0,0 STARLINK-5321,1 55302U 23010AK  24126.83082621 -.00000251  00000-0 -13268-4 0  9990,2 55302  69.9992 280.8773 0003014 270.4047  89.6766 14.98333050 72173,6950.183,96.107,574.143,569.954,0.0
55302.0,STARLINK-5321,PAYLOAD,2024-05-06 15:09:59,14.98328881,0.0003134,69.9988,278.8559,269.0199,91.0601,0.00017987,2.054e-05,0.0,0 STARLINK-5321,1 55302U 23010AK  24127.63194271  .00002054  00000-0  17987-3 0  9996,2 55302  69.9988 278.8559 0003134 269.0199  91.0601 14.98328881 72601,6950.196,96.107,574.24,569.883,0.0
55302.0,STARLINK-5321,PAYLOAD,2024-05-06 19:58:23,14.98336078,0.0003124,69.9988,278.3515,270.1733,89.9068,0.00020382,2.34e-05,0.0,0 STARLINK-5321,1 55302U 23010AK  24127.83221712  .00002340  00000-0  20382-3 0  9990,2 55302  69.9988 278.3515 0003124 270.1733  89.9068 14.98336078 72323,6950.174,96.107,574.21,569.868,0.0
